start=new Date('2021-10-06T00:00:00.000Z').valueOf();
sats=[{"INCLINATION":"53.0576","OBJECT_ID":"2021-038BB","SITE":"AFETR","ARG_OF_PERICENTER":"123.5390","OBJECT_NAME":"STARLINK-2560","FILE":"3145988","LAUNCH_DATE":"2021-05-04","TLE_LINE2":"2 48402  53.0576  37.7277 0001436 123.5390 236.5736 15.06398729 23687","MEAN_ELEMENT_THEORY":"SGP4","RCS_SIZE":"LARGE","REV_AT_EPOCH":"2368","MEAN_MOTION_DOT":"0.00001650","ECCENTRICITY":"0.00014360","COUNTRY_CODE":"US","EPOCH":"2021-10-05T07:56:13.740576","BSTAR":"0.00012962000000","TLE_LINE1":"1 48402U 21038BB  21278.33071459  .00001650  00000-0  12962-3 0  9999","APOAPSIS":"548.212","CENTER_NAME":"EARTH","PERIAPSIS":"546.223","GP_ID":"186278381","SEMIMAJOR_AXIS":"6925.352","MEAN_ANOMALY":"236.5736","REF_FRAME":"TEME","EPHEMERIS_TYPE":"0","PERIOD":"95.592","CLASSIFICATION_TYPE":"U","RA_OF_ASC_NODE":"37.7277","MEAN_MOTION":"15.06398729","OBJECT_TYPE":"PAYLOAD","TIME_SYSTEM":"UTC","NORAD_CAT_ID":"48402","MEAN_MOTION_DDOT":"0.0000000000000","ELEMENT_SET_NO":"999","DECAY_DATE":null},{"SITE":"AFETR","ARG_OF_PERICENTER":"118.2547","OBJECT_NAME":"STARLINK-2561","INCLINATION":"53.0561","OBJECT_ID":"2021-038BC","MEAN_MOTION_DOT":"0.00000454","ECCENTRICITY":"0.00015100","COUNTRY_CODE":"US","EPOCH":"2021-10-05T01:28:45.722784","BSTAR":"0.00004938900000","FILE":"3145988","TLE_LINE2":"2 48403  53.0561  38.9298 0001510 118.2547 241.8594 15.06401461 23641","LAUNCH_DATE":"2021-05-04","MEAN_ELEMENT_THEORY":"SGP4","RCS_SIZE":"LARGE","REV_AT_EPOCH":"2364","EPHEMERIS_TYPE":"0","PERIOD":"95.592","TLE_LINE1":"1 48403U 21038BC  21278.06164031  .00000454  00000-0  49389-4 0  9994","APOAPSIS":"548.255","CENTER_NAME":"EARTH","PERIAPSIS":"546.163","SEMIMAJOR_AXIS":"6925.344","GP_ID":"186278262","MEAN_ANOMALY":"241.8594","REF_FRAME":"TEME","MEAN_MOTION_DDOT":"0.0000000000000","DECAY_DATE":null,"ELEMENT_SET_NO":"999","RA_OF_ASC_NODE":"38.9298","CLASSIFICATION_TYPE":"U","MEAN_MOTION":"15.06401461","OBJECT_TYPE":"PAYLOAD","TIME_SYSTEM":"UTC","NORAD_CAT_ID":"48403"},{"INCLINATION":"53.0576","OBJECT_ID":"2021-038BD","OBJECT_NAME":"STARLINK-2593","SITE":"AFETR","ARG_OF_PERICENTER":"117.7218","REV_AT_EPOCH":"2364","RCS_SIZE":"LARGE","MEAN_ELEMENT_THEORY":"SGP4","TLE_LINE2":"2 48404  53.0576  38.9532 0001544 117.7218 242.3928 15.06388821 23646","LAUNCH_DATE":"2021-05-04","FILE":"3145988","BSTAR":"0.00001153600000","COUNTRY_CODE":"US","EPOCH":"2021-10-05T01:23:28.587264","MEAN_MOTION_DOT":"-0.00000110","ECCENTRICITY":"0.00015440","MEAN_ANOMALY":"242.3928","REF_FRAME":"TEME","SEMIMAJOR_AXIS":"6925.383","GP_ID":"186278273","PERIAPSIS":"546.179","TLE_LINE1":"1 48404U 21038BD  21278.05796976 -.00000110  00000-0  11536-4 0  9996","CENTER_NAME":"EARTH","APOAPSIS":"548.317","PERIOD":"95.593","EPHEMERIS_TYPE":"0","TIME_SYSTEM":"UTC","NORAD_CAT_ID":"48404","OBJECT_TYPE":"PAYLOAD","MEAN_MOTION":"15.06388821","RA_OF_ASC_NODE":"38.9532","CLASSIFICATION_TYPE":"U","DECAY_DATE":null,"ELEMENT_SET_NO":"999","MEAN_MOTION_DDOT":"0.0000000000000"},{"TIME_SYSTEM":"UTC","NORAD_CAT_ID":"48405","OBJECT_TYPE":"PAYLOAD","MEAN_MOTION":"15.06388838","CLASSIFICATION_TYPE":"U","RA_OF_ASC_NODE":"38.9678","ELEMENT_SET_NO":"999","DECAY_DATE":null,"MEAN_MOTION_DDOT":"0.0000000000000","MEAN_ANOMALY":"238.3910","REF_FRAME":"TEME","GP_ID":"186278489","SEMIMAJOR_AXIS":"6925.383","PERIAPSIS":"546.316","TLE_LINE1":"1 48405U 21038BE  21278.05428064 -.00001675  00000-0 -93613-4 0  9991","CENTER_NAME":"EARTH","APOAPSIS":"548.179","PERIOD":"95.593","EPHEMERIS_TYPE":"0","RCS_SIZE":"LARGE","REV_AT_EPOCH":"2364","MEAN_ELEMENT_THEORY":"SGP4","TLE_LINE2":"2 48405  53.0574  38.9678 0001345 121.7210 238.3910 15.06388838 23646","LAUNCH_DATE":"2021-05-04","FILE":"3145988","BSTAR":"-0.00009361300000","COUNTRY_CODE":"US","EPOCH":"2021-10-05T01:18:09.847296","MEAN_MOTION_DOT":"-0.00001675","ECCENTRICITY":"0.00013450","INCLINATION":"53.0574","OBJECT_ID":"2021-038BE","OBJECT_NAME":"STARLINK-2570","SITE":"AFETR","ARG_OF_PERICENTER":"121.7210"},{"OBJECT_ID":"2021-038BF","INCLINATION":"53.0564","ARG_OF_PERICENTER":"123.1866","SITE":"AFETR","OBJECT_NAME":"STARLINK-2568","TLE_LINE2":"2 48406  53.0564  37.7888 0001321 123.1866 236.9250 15.06404436 23681","LAUNCH_DATE":"2021-05-04","FILE":"3145988","RCS_SIZE":"LARGE","REV_AT_EPOCH":"2368","MEAN_ELEMENT_THEORY":"SGP4","EPOCH":"2021-10-05T07:35:00.984768","COUNTRY_CODE":"US","ECCENTRICITY":"0.00013210","MEAN_MOTION_DOT":"-0.00002860","BSTAR":"-0.00017315000000","PERIAPSIS":"546.285","APOAPSIS":"548.115","CENTER_NAME":"EARTH","TLE_LINE1":"1 48406U 21038BF  21278.31598362 -.00002860  00000-0 -17315-3 0  9991","REF_FRAME":"TEME","MEAN_ANOMALY":"236.9250","GP_ID":"186278047","SEMIMAJOR_AXIS":"6925.335","PERIOD":"95.592","EPHEMERIS_TYPE":"0","MEAN_MOTION":"15.06404436","CLASSIFICATION_TYPE":"U","RA_OF_ASC_NODE":"37.7888","NORAD_CAT_ID":"48406","TIME_SYSTEM":"UTC","OBJECT_TYPE":"PAYLOAD","MEAN_MOTION_DDOT":"0.0000000000000","DECAY_DATE":null,"ELEMENT_SET_NO":"999"},{"INCLINATION":"53.0508","OBJECT_ID":"2021-038BG","OBJECT_NAME":"STARLINK-2595","SITE":"AFETR","ARG_OF_PERICENTER":"130.5264","MEAN_ELEMENT_THEORY":"SGP4","REV_AT_EPOCH":"2368","RCS_SIZE":"LARGE","FILE":"3145988","LAUNCH_DATE":"2021-05-04","TLE_LINE2":"2 48407  53.0508  37.5297 0001000 130.5264 229.5812 15.06397918 23688","BSTAR":"0.00001452300000","MEAN_MOTION_DOT":"-0.00000065","ECCENTRICITY":"0.00010000","COUNTRY_CODE":"US","EPOCH":"2021-10-05T09:05:15.188928","SEMIMAJOR_AXIS":"6925.355","GP_ID":"186278597","MEAN_ANOMALY":"229.5812","REF_FRAME":"TEME","TLE_LINE1":"1 48407U 21038BG  21278.37864802 -.00000065  00000-0  14523-4 0  9996","APOAPSIS":"547.912","CENTER_NAME":"EARTH","PERIAPSIS":"546.527","EPHEMERIS_TYPE":"0","PERIOD":"95.592","OBJECT_TYPE":"PAYLOAD","TIME_SYSTEM":"UTC","NORAD_CAT_ID":"48407","CLASSIFICATION_TYPE":"U","RA_OF_ASC_NODE":"37.5297","MEAN_MOTION":"15.06397918","DECAY_DATE":null,"ELEMENT_SET_NO":"999","MEAN_MOTION_DDOT":"0.0000000000000"},{"ELEMENT_SET_NO":"999","DECAY_DATE":null,"MEAN_MOTION_DDOT":"0.0000000000000","OBJECT_TYPE":"PAYLOAD","NORAD_CAT_ID":"48408","TIME_SYSTEM":"UTC","RA_OF_ASC_NODE":"37.8246","CLASSIFICATION_TYPE":"U","MEAN_MOTION":"15.06394906","EPHEMERIS_TYPE":"0","PERIOD":"95.592","GP_ID":"186277940","SEMIMAJOR_AXIS":"6925.364","REF_FRAME":"TEME","MEAN_ANOMALY":"244.4688","APOAPSIS":"548.053","CENTER_NAME":"EARTH","TLE_LINE1":"1 48408U 21038BH  21278.30860188  .00000916  00000-0  80400-4 0  9994","PERIAPSIS":"546.405","BSTAR":"0.00008040000000","ECCENTRICITY":"0.00011900","MEAN_MOTION_DOT":"0.00000916","EPOCH":"2021-10-05T07:24:23.202432","COUNTRY_CODE":"US","MEAN_ELEMENT_THEORY":"SGP4","RCS_SIZE":"LARGE","REV_AT_EPOCH":"2367","FILE":"3145988","TLE_LINE2":"2 48408  53.0544  37.8246 0001190 115.6424 244.4688 15.06394906 23678","LAUNCH_DATE":"2021-05-04","OBJECT_NAME":"STARLINK-2592","ARG_OF_PERICENTER":"115.6424","SITE":"AFETR","OBJECT_ID":"2021-038BH","INCLINATION":"53.0544"},{"LAUNCH_DATE":"2021-05-04","TLE_LINE2":"2 48409  53.0564  43.9126 0001510 115.9299 244.1846 15.06390407 23580","FILE":"3145988","REV_AT_EPOCH":"2358","RCS_SIZE":"LARGE","MEAN_ELEMENT_THEORY":"SGP4","COUNTRY_CODE":"US","EPOCH":"2021-10-05T01:36:04.726368","MEAN_MOTION_DOT":"-0.00000140","ECCENTRICITY":"0.00015100","BSTAR":"0.00000951370000","INCLINATION":"53.0564","OBJECT_ID":"2021-038BJ","SITE":"AFETR","ARG_OF_PERICENTER":"115.9299","OBJECT_NAME":"STARLINK-2596","MEAN_MOTION":"15.06390407","CLASSIFICATION_TYPE":"U","RA_OF_ASC_NODE":"43.9126","TIME_SYSTEM":"UTC","NORAD_CAT_ID":"48409","OBJECT_TYPE":"PAYLOAD","MEAN_MOTION_DDOT":"0.0000000000000","DECAY_DATE":null,"ELEMENT_SET_NO":"999","PERIAPSIS":"546.197","TLE_LINE1":"1 48409U 21038BJ  21278.06672137 -.00000140  00000-0  95137-5 0  9997","CENTER_NAME":"EARTH","APOAPSIS":"548.289","MEAN_ANOMALY":"244.1846","REF_FRAME":"TEME","GP_ID":"186278155","SEMIMAJOR_AXIS":"6925.378","PERIOD":"95.593","EPHEMERIS_TYPE":"0"},{"PERIOD":"91.532","EPHEMERIS_TYPE":"0","PERIAPSIS":"346.581","CENTER_NAME":"EARTH","APOAPSIS":"352.833","TLE_LINE1":"1 48410U 21038BK  21279.00001157  .00035224  00000-0  25399-3 0  9993","REF_FRAME":"TEME","MEAN_ANOMALY":"169.5215","GP_ID":"186307410","SEMIMAJOR_AXIS":"6727.842","MEAN_MOTION_DDOT":"0.0000000000000","ELEMENT_SET_NO":"999","DECAY_DATE":null,"MEAN_MOTION":"15.73218600","CLASSIFICATION_TYPE":"U","RA_OF_ASC_NODE":"357.8086","NORAD_CAT_ID":"48410","TIME_SYSTEM":"UTC","OBJECT_TYPE":"PAYLOAD","ARG_OF_PERICENTER":"343.2413","SITE":"AFETR","OBJECT_NAME":"STARLINK-2563","OBJECT_ID":"2021-038BK","INCLINATION":"53.0503","EPOCH":"2021-10-06T00:00:00.999648","COUNTRY_CODE":"US","ECCENTRICITY":"0.00046460","MEAN_MOTION_DOT":"0.00035224","BSTAR":"0.00025399000000","LAUNCH_DATE":"2021-05-04","TLE_LINE2":"2 48410  53.0503 357.8086 0004646 343.2413 169.5215 15.73218600  3726","FILE":"3146344","REV_AT_EPOCH":"372","RCS_SIZE":"LARGE","MEAN_ELEMENT_THEORY":"SGP4"},{"OBJECT_NAME":"STARLINK-2505","ARG_OF_PERICENTER":"342.6984","SITE":"AFETR","OBJECT_ID":"2021-038BL","INCLINATION":"53.0495","BSTAR":"-0.00037264000000","EPOCH":"2021-10-06T00:00:00.999648","COUNTRY_CODE":"US","ECCENTRICITY":"0.00045980","MEAN_MOTION_DOT":"-0.00052724","RCS_SIZE":"LARGE","REV_AT_EPOCH":"367","MEAN_ELEMENT_THEORY":"SGP4","TLE_LINE2":"2 48411  53.0495 357.8049 0004598 342.6984 170.7153 15.73236708  3676","LAUNCH_DATE":"2021-05-04","FILE":"3146344","PERIOD":"91.531","EPHEMERIS_TYPE":"0","REF_FRAME":"TEME","MEAN_ANOMALY":"170.7153","GP_ID":"186307961","SEMIMAJOR_AXIS":"6727.791","PERIAPSIS":"346.562","CENTER_NAME":"EARTH","APOAPSIS":"352.749","TLE_LINE1":"1 48411U 21038BL  21279.00001157 -.00052724  00000-0 -37264-3 0  9994","ELEMENT_SET_NO":"999","DECAY_DATE":null,"MEAN_MOTION_DDOT":"0.0000000000000","NORAD_CAT_ID":"48411","TIME_SYSTEM":"UTC","OBJECT_TYPE":"PAYLOAD","MEAN_MOTION":"15.73236708","CLASSIFICATION_TYPE":"U","RA_OF_ASC_NODE":"357.8049"}];
